NORAD_CAT_ID,OBJECT_NAME,OBJECT_TYPE,EPOCH,MEAN_MOTION,ECCENTRICITY,INCLINATION,RA_OF_ASC_NODE,ARG_OF_PERICENTER,MEAN_ANOMALY,BSTAR,MEAN_MOTION_DOT,MEAN_MOTION_DDOT,TLE_LINE0,TLE_LINE1,TLE_LINE2,SEMIMAJOR_AXIS,PERIOD,APOGEE,PERIGEE,DECAYED
54095.0,STARLINK-5193,PAYLOAD,2022-10-25 18:00:00,15.90273702,0.0030679,53.2173,122.838,56.0503,293.0261,-0.0041308,-0.01338044,0.00051091,0 STARLINK-5193,1 54095U 22136AW  22298.75001157 -.01338044  51091-3 -41308-2 0  9998,2 54095  53.2173 122.8380 0030679  56.0503 293.0261 15.90273702  1307,6679.653,90.55,322.011,281.026,0.0
54095.0,STARLINK-5193,PAYLOAD,2022-10-25 22:00:01,15.89841938,0.0029458,53.2174,121.9935,57.023,166.707,-0.0042677,-0.01347209,0.00051519,0 STARLINK-5193,1 54095U 22136AW  22298.91668981 -.01347209  51519-3 -42677-2 0  9998,2 54095  53.2174 121.9935 0029458  57.0230 166.7070 15.89841938  1309,6680.863,90.575,322.408,283.047,0.0
54095.0,STARLINK-5193,PAYLOAD,2022-10-26 06:00:00,15.88971178,0.0026146,53.2175,120.3023,56.9389,275.1187,-0.0044713,-0.0133887,0.00050525,0 STARLINK-5193,1 54095U 22136AW  22299.25001157 -.01338870  50525-3 -44713-2 0  9995,2 54095  53.2175 120.3023 0026146  56.9389 275.1187 15.88971178  1375,6683.303000000001,90.625,322.642,287.694,0.0
54095.0,STARLINK-5193,PAYLOAD,2022-10-26 14:00:01,15.88083597,0.0022385,53.2174,118.6146,56.2751,23.1388,-0.0045616,-0.01296033,0.00047228,0 STARLINK-5193,1 54095U 22136AW  22299.58334491 -.01296033  47228-3 -45616-2 0  9994,2 54095  53.2174 118.6146 0022385  56.2751  23.1388 15.88083597  1303,6685.793000000002,90.675,322.624,292.692,0.0
54095.0,STARLINK-5193,PAYLOAD,2022-10-26 22:00:00,15.87237382,0.0018957999999999,53.2176,116.9313,54.4871,131.2248,-0.004957,-0.0134143,0.00049896,0 STARLINK-5193,1 54095U 22136AW  22299.91667824 -.01341430  49896-3 -49570-2 0  9998,2 54095  53.2176 116.9313 0018958  54.4871 131.2248 15.87237382  1483,6688.169,90.724,322.714,297.355,0.0
54095.0,STARLINK-5193,PAYLOAD,2022-10-27 14:00:01,15.85475266,0.001303,53.2172,113.5654,53.8214,341.4530000000001,-0.0052541,-0.01145715,0.0,0 STARLINK-5193,1 54095U 22136AW  22300.58335648 -.01145715  00000-0 -52541-2 0  9991,2 54095  53.2172 113.5654 0013030  53.8214 341.4530 15.85475266  1594,6693.124,90.825,323.71,306.268,0.0
54095.0,STARLINK-5193,PAYLOAD,2022-10-27 22:00:00,15.84608885,0.0009504,53.2174,111.8889,49.1655,89.21700000000001,-0.0054926,-0.01142777,0.0,0 STARLINK-5193,1 54095U 22136AW  22300.91667824 -.01142777  00000-0 -54926-2 0  9996,2 54095  53.2174 111.8889 0009504  49.1655  89.2170 15.84608885  1305,6695.563,90.874,323.7920000000001,311.065,0.0
54095.0,STARLINK-5193,PAYLOAD,2022-10-28 08:00:01,15.83547771,0.0005417,53.2174,109.791,34.0996,321.8465,-0.0060063,-0.01199692,0.0,0 STARLINK-5193,1 54095U 22136AW  22301.33335648 -.01199692  00000-0 -60063-2 0  9996,2 54095  53.2174 109.7910 0005417  34.0996 321.8465 15.83547771  1718,6698.554,90.935,324.048,316.79,0.0
54095.0,STARLINK-5193,PAYLOAD,2022-10-28 14:00:01,15.82902571,0.0004038,53.2174,108.5359,19.8598,321.8046,-0.0062493,-0.01208006,0.0,0 STARLINK-5193,1 54095U 22136AW  22301.58335648 -.01208006  00000-0 -62493-2 0  9992,2 54095  53.2174 108.5359 0004038  19.8598 321.8046 15.82902571  1301,6700.374,90.972,324.945,319.533,0.0
54095.0,STARLINK-5193,PAYLOAD,2022-10-28 22:00:01,15.8199983,0.0003078999999999,53.2173,106.8657,333.2771,108.4472,-0.0061831,-0.01151086,0.0,0 STARLINK-5193,1 54095U 22136AW  22301.91668981 -.01151086  00000-0 -61831-2 0  9998,2 54095  53.2173 106.8657 0003079 333.2771 108.4472 15.81999830  1802,6702.9230000000025,91.024,326.8520000000001,322.724,0.0
54095.0,STARLINK-5193,PAYLOAD,2022-10-29 12:00:00,15.80525981,0.0005829,53.2171,103.942,276.6255,247.5901,-0.0070434,-0.01217905,0.0,0 STARLINK-5193,1 54095U 22136AW  22302.50001157 -.01217905  00000-0 -70434-2 0  9992,2 54095  53.2171 103.9420 0005829 276.6255 247.5901 15.80525981  1306,6707.089,91.109,332.8640000000001,325.045,0.0
54095.0,STARLINK-5193,PAYLOAD,2022-10-29 22:00:01,15.79423823,0.0006053,53.2174,101.8612,270.8104,104.7894,-0.0072422,-0.01193286,0.0,0 STARLINK-5193,1 54095U 22136AW  22302.91668981 -.01193286  00000-0 -72422-2 0  9995,2 54095  53.2174 101.8612 0006053 270.8104 104.7894 15.79423823  1303,6710.209,91.172,336.136,328.01199999999994,0.0
54095.0,STARLINK-5193,PAYLOAD,2022-10-30 00:00:00,15.79225472,0.00052,53.2173,101.4446,271.6919,217.9034,-0.0075363,-0.01225543,0.0,0 STARLINK-5193,1 54095U 22136AW  22303.00001157 -.01225543  00000-0 -75363-2 0  9991,2 54095  53.2173 101.4446 0005200 271.6919 217.9034 15.79225472  1975,6710.771,91.184,336.126,329.146,0.0
54095.0,STARLINK-5193,PAYLOAD,2022-10-30 14:00:01,15.77702294,0.0003096,53.2174,98.5348,287.1834,279.0543,-0.0079878,-0.01211865,0.0,0 STARLINK-5193,1 54095U 22136AW  22303.58334491 -.01211865  00000-0 -79878-2 0  9991,2 54095  53.2174  98.5348 0003096 287.1834 279.0543 15.77702294  1303,6715.089,91.272,339.033,334.875,0.0
54095.0,STARLINK-5193,PAYLOAD,2022-10-30 22:00:01,15.76822491,3.77e-05,53.2172,96.877,317.7631,342.3343,-0.0081651,-0.01191594,0.0,0 STARLINK-5193,1 54095U 22136AW  22303.91668981 -.01191594  00000-0 -81651-2 0  9990,2 54095  53.2172  96.8770 0000377 317.7631 342.3343 15.76822491  1308,6717.587,91.323,339.705,339.199,0.0
54095.0,STARLINK-5193,PAYLOAD,2022-10-31 14:00:01,15.75096144,0.0001229,53.2173,93.563,56.4397,68.0399,-0.0089407999999999,-0.01206937,0.0,0 STARLINK-5193,1 54095U 22136AW  22304.58334491 -.01206937  00000-0 -89408-2 0  9996,2 54095  53.2173  93.5630 0001229  56.4397  68.0399 15.75096144  1301,6722.495,91.423,345.186,343.533,0.0
54095.0,STARLINK-5193,PAYLOAD,2022-10-31 22:00:01,15.74097173,0.0001036999999999,53.2172,91.9112,61.4557,153.7776,-0.0066966,-0.00880918,0.0,0 STARLINK-5193,1 54095U 22136AW  22304.91668981 -.00880918  00000-0 -66966-2 0  9997,2 54095  53.2172  91.9112 0001037  61.4557 153.7776 15.74097173  2278,6725.339,91.481,347.901,346.506,0.0
54095.0,STARLINK-5193,PAYLOAD,2022-11-01 06:00:00,15.73323358,0.0001190999999999,53.2175,90.2583,52.2149,252.581,-0.0013397,-0.00185525,0.0,0 STARLINK-5193,1 54095U 22136AW  22305.25001157 -.00185525  00000-0 -13397-2 0  9993,2 54095  53.2175  90.2583 0001191  52.2149 252.5810 15.73323358  2320,6727.543000000002,91.526,350.21,348.607,0.0
54095.0,STARLINK-5193,PAYLOAD,2022-11-01 14:00:01,15.73202215,0.0001841999999999,53.2164,88.6139,64.2668,329.3794,0.00026595,0.00036872,0.0,0 STARLINK-5193,1 54095U 22136AW  22305.58334491  .00036872  00000-0  26595-3 0  9992,2 54095  53.2164  88.6139 0001842  64.2668 329.3794 15.73202215  1307,6727.889,91.533,350.99300000000005,348.515,0.0
54095.0,STARLINK-5193,PAYLOAD,2022-11-01 22:00:00,15.73230169,0.0001851999999999,53.2159,86.9652,57.2351,65.358,0.00071339,0.00100842,0.0,0 STARLINK-5193,1 54095U 22136AW  22305.91667824  .00100842  00000-0  71339-3 0  9993,2 54095  53.2159  86.9652 0001852  57.2351  65.3580 15.73230169  2438,6727.809,91.531,350.92,348.42800000000005,0.0
54095.0,STARLINK-5193,PAYLOAD,2022-11-02 06:00:00,15.73304039,0.0001503,53.2161,85.3134,59.7964,151.8066,-0.00033976,-0.00048244,0.0,0 STARLINK-5193,1 54095U 22136AW  22306.25001157 -.00048244  00000-0 -33976-3 0  9996,2 54095  53.2161  85.3134 0001503  59.7964 151.8066 15.73304039  2482,6727.599,91.527,350.475,348.452,0.0
54095.0,STARLINK-5193,PAYLOAD,2022-11-02 14:00:01,15.73271474,0.0001456,53.217,83.6644,48.7275,251.9101,-0.00033075,-0.00046923,0.0,0 STARLINK-5193,1 54095U 22136AW  22306.58334491 -.00046923  00000-0 -33075-3 0  9994,2 54095  53.2170  83.6644 0001456  48.7275 251.9101 15.73271474  1307,6727.691,91.529,350.536,348.577,0.0
54095.0,STARLINK-5193,PAYLOAD,2022-11-02 22:00:00,15.73231552,0.0001533,53.2161,82.0159,35.6377,353.9687,-0.00031673,-0.00044896,0.0,0 STARLINK-5193,1 54095U 22136AW  22306.91667824 -.00044896  00000-0 -31673-3 0  9999,2 54095  53.2161  82.0159 0001533  35.6377 353.9687 15.73231552  1300,6727.805,91.531,350.702,348.639,0.0
54095.0,STARLINK-5193,PAYLOAD,2022-11-03 08:00:01,15.73206574,0.0001575999999999,53.2175,79.94800000000002,65.2684,165.4237,-1.4148e-05,-2.606e-05,0.0,0 STARLINK-5193,1 54095U 22136AW  22307.33334491 -.00002606  00000-0 -14148-4 0  9999,2 54095  53.2175  79.9480 0001576  65.2684 165.4237 15.73206574  2656,6727.876,91.533,350.802,348.681,0.0
54095.0,STARLINK-5193,PAYLOAD,2022-11-03 14:00:01,15.73295264,0.0001555,53.216,78.7163,37.7305,169.7795,-0.00069718,-0.00097736,0.0,0 STARLINK-5193,1 54095U 22136AW  22307.58334491 -.00097736  00000-0 -69718-3 0  9996,2 54095  53.2160  78.7163 0001555  37.7305 169.7795 15.73295264  2690,6727.624,91.528,350.535,348.44199999999995,0.0
54095.0,STARLINK-5193,PAYLOAD,2022-11-03 22:00:00,15.73227786,0.0001693,53.2156,77.0668,31.429,265.0957,0.00022085,0.00030524,0.0,0 STARLINK-5193,1 54095U 22136AW  22307.91667824  .00030524  00000-0  22085-3 0  9998,2 54095  53.2156  77.0668 0001693  31.4290 265.0957 15.73227786  1305,6727.816,91.532,350.82,348.542,0.0
54095.0,STARLINK-5193,PAYLOAD,2022-11-04 14:00:01,15.7323998,0.0001724,53.216,73.7672,29.8042,84.6792,-0.00022173,-0.00031677,0.0,0 STARLINK-5193,1 54095U 22136AW  22308.58334491 -.00031677  00000-0 -22173-3 0  9993,2 54095  53.2160  73.7672 0001724  29.8042  84.6792 15.73239980  2851,6727.781,91.531,350.806,348.486,0.0
54095.0,STARLINK-5193,PAYLOAD,2022-11-04 22:00:01,15.73211822,0.0001825,53.216,72.1178,28.4599,174.9624,-0.00063243,-0.00088501,0.0,0 STARLINK-5193,1 54095U 22136AW  22308.91668981 -.00088501  00000-0 -63243-3 0  9995,2 54095  53.2160  72.1178 0001825  28.4599 174.9624 15.73211822  2907,6727.861,91.532,350.954,348.499,0.0
54095.0,STARLINK-5193,PAYLOAD,2022-11-05 14:00:01,15.73086889,0.0002015,53.2161,68.819,32.8262,348.3188,0.00037028,0.00051415,0.0,0 STARLINK-5193,1 54095U 22136AW  22309.58335648  .00051415  00000-0  37028-3 0  9994,2 54095  53.2161  68.8190 0002015  32.8262 348.3188 15.73086889  1300,6728.218000000003,91.54,351.43800000000016,348.727,0.0
